stk.v.4.2

BEGIN Ephemeris

    BlockingFactor		20

    InterpolationOrder 		5


NumberOfEphemerisPoints 		2149

ScenarioEpoch 		1 Jun 2001 18:00:00.000000000

CentralBody 		 Earth

CoordinateSystem 		 Fixed

EphemerisTimePosVel

1.66600000000000e+003 3.62391479090000e+006 -3.19351220970000e+006 6.02379546490000e+006 -2.96165410000000e+003 -4.28914930000000e+003 -2.16295360000000e+003
1.66700000000000e+003 3.62045333210000e+006 -3.19740920480000e+006 6.02162990310000e+006 -2.96538780000000e+003 -4.28658590000000e+003 -2.16817030000000e+003
1.66800000000000e+003 3.61698819440000e+006 -3.20130294760000e+006 6.01945912390000e+006 -2.96912110000000e+003 -4.28401720000000e+003 -2.17338850000000e+003
1.66900000000000e+003 3.61351937920000e+006 -3.20519343230000e+006 6.01728312560000e+006 -2.97285420000000e+003 -4.28144330000000e+003 -2.17860830000000e+003
1.67000000000000e+003 3.61004688790000e+006 -3.20908065320000e+006 6.01510190670000e+006 -2.97658700000000e+003 -4.27886410000000e+003 -2.18382970000000e+003
1.67100000000000e+003 3.60657072190000e+006 -3.21296460450000e+006 6.01291546560000e+006 -2.98031950000000e+003 -4.27627960000000e+003 -2.18905270000000e+003
1.67200000000000e+003 3.60309088260000e+006 -3.21684528060000e+006 6.01072380070000e+006 -2.98405170000000e+003 -4.27368980000000e+003 -2.19427730000000e+003
1.67300000000000e+003 3.59960737140000e+006 -3.22072267580000e+006 6.00852691040000e+006 -2.98778360000000e+003 -4.27109470000000e+003 -2.19950350000000e+003
1.67400000000000e+003 3.59612018960000e+006 -3.22459678410000e+006 6.00632479310000e+006 -2.99151530000000e+003 -4.26849430000000e+003 -2.20473130000000e+003
1.67500000000000e+003 3.59262933870000e+006 -3.22846760000000e+006 6.00411744730000e+006 -2.99524660000000e+003 -4.26588850000000e+003 -2.20996070000000e+003
1.67600000000000e+003 3.58913482010000e+006 -3.23233511760000e+006 6.00190487130000e+006 -2.99897770000000e+003 -4.26327740000000e+003 -2.21519160000000e+003
1.67700000000000e+003 3.58563663510000e+006 -3.23619933110000e+006 5.99968706350000e+006 -3.00270850000000e+003 -4.26066110000000e+003 -2.22042420000000e+003
1.67800000000000e+003 3.58213478510000e+006 -3.24006023490000e+006 5.99746402230000e+006 -3.00643900000000e+003 -4.25803930000000e+003 -2.22565840000000e+003
1.67900000000000e+003 3.57862927160000e+006 -3.24391782300000e+006 5.99523574620000e+006 -3.01016920000000e+003 -4.25541220000000e+003 -2.23089420000000e+003
1.68000000000000e+003 3.57512009590000e+006 -3.24777208980000e+006 5.99300223340000e+006 -3.01389910000000e+003 -4.25277980000000e+003 -2.23613160000000e+003
1.68100000000000e+003 3.57160725950000e+006 -3.25162302940000e+006 5.99076348250000e+006 -3.01762870000000e+003 -4.25014200000000e+003 -2.24137060000000e+003
1.68200000000000e+003 3.56809076370000e+006 -3.25547063600000e+006 5.98851949170000e+006 -3.02135810000000e+003 -4.24749880000000e+003 -2.24661130000000e+003
1.68300000000000e+003 3.56457061000000e+006 -3.25931490370000e+006 5.98627025940000e+006 -3.02508720000000e+003 -4.24485020000000e+003 -2.25185350000000e+003
1.68400000000000e+003 3.56104679980000e+006 -3.26315582690000e+006 5.98401578410000e+006 -3.02881590000000e+003 -4.24219630000000e+003 -2.25709740000000e+003
1.68500000000000e+003 3.55751933450000e+006 -3.26699339960000e+006 5.98175606410000e+006 -3.03254440000000e+003 -4.23953700000000e+003 -2.26234290000000e+003
1.68600000000000e+003 3.55398821550000e+006 -3.27082761610000e+006 5.97949109770000e+006 -3.03627260000000e+003 -4.23687220000000e+003 -2.26759010000000e+003
1.68700000000000e+003 3.55045344430000e+006 -3.27465847040000e+006 5.97722088340000e+006 -3.04000050000000e+003 -4.23420210000000e+003 -2.27283880000000e+003
1.68800000000000e+003 3.54691502220000e+006 -3.27848595680000e+006 5.97494541950000e+006 -3.04372820000000e+003 -4.23152660000000e+003 -2.27808930000000e+003
1.68900000000000e+003 3.54337295070000e+006 -3.28231006930000e+006 5.97266470440000e+006 -3.04745550000000e+003 -4.22884560000000e+003 -2.28334130000000e+003
1.69000000000000e+003 3.53982723110000e+006 -3.28613080220000e+006 5.97037873630000e+006 -3.05118250000000e+003 -4.22615920000000e+003 -2.28859500000000e+003
1.69100000000000e+003 3.53627786510000e+006 -3.28994814950000e+006 5.96808751380000e+006 -3.05490930000000e+003 -4.22346730000000e+003 -2.29385040000000e+003
1.69200000000000e+003 3.53272485380000e+006 -3.29376210540000e+006 5.96579103510000e+006 -3.05863580000000e+003 -4.22077010000000e+003 -2.29910730000000e+003
1.69300000000000e+003 3.52916819890000e+006 -3.29757266400000e+006 5.96348929850000e+006 -3.06236200000000e+003 -4.21806730000000e+003 -2.30436600000000e+003
1.69400000000000e+003 3.52560790170000e+006 -3.30137981940000e+006 5.96118230250000e+006 -3.06608790000000e+003 -4.21535910000000e+003 -2.30962630000000e+003
1.69500000000000e+003 3.52204396360000e+006 -3.30518356570000e+006 5.95887004540000e+006 -3.06981350000000e+003 -4.21264550000000e+003 -2.31488820000000e+003
1.69600000000000e+003 3.51847638620000e+006 -3.30898389700000e+006 5.95655252550000e+006 -3.07353880000000e+003 -4.20992630000000e+003 -2.32015190000000e+003
1.69700000000000e+003 3.51490517080000e+006 -3.31278080740000e+006 5.95422974120000e+006 -3.07726380000000e+003 -4.20720170000000e+003 -2.32541710000000e+003
1.69800000000000e+003 3.51133031880000e+006 -3.31657429100000e+006 5.95190169070000e+006 -3.08098860000000e+003 -4.20447160000000e+003 -2.33068410000000e+003
1.69900000000000e+003 3.50775183180000e+006 -3.32036434180000e+006 5.94956837240000e+006 -3.08471310000000e+003 -4.20173600000000e+003 -2.33595270000000e+003
1.70000000000000e+003 3.50416971120000e+006 -3.32415095400000e+006 5.94722978470000e+006 -3.08843720000000e+003 -4.19899490000000e+003 -2.34122300000000e+003
1.70100000000000e+003 3.50058395840000e+006 -3.32793412150000e+006 5.94488592590000e+006 -3.09216110000000e+003 -4.19624830000000e+003 -2.34649490000000e+003
1.70200000000000e+003 3.49699457490000e+006 -3.33171383840000e+006 5.94253679430000e+006 -3.09588470000000e+003 -4.19349610000000e+003 -2.35176860000000e+003
1.70300000000000e+003 3.49340156210000e+006 -3.33549009880000e+006 5.94018238820000e+006 -3.09960800000000e+003 -4.19073840000000e+003 -2.35704390000000e+003
1.70400000000000e+003 3.48980492150000e+006 -3.33926289670000e+006 5.93782270590000e+006 -3.10333100000000e+003 -4.18797520000000e+003 -2.36232090000000e+003
1.70500000000000e+003 3.48620465450000e+006 -3.34303222610000e+006 5.93545774580000e+006 -3.10705380000000e+003 -4.18520640000000e+003 -2.36759960000000e+003
1.70600000000000e+003 3.48260076270000e+006 -3.34679808100000e+006 5.93308750610000e+006 -3.11077620000000e+003 -4.18243210000000e+003 -2.37288000000000e+003
1.70700000000000e+003 3.47899324740000e+006 -3.35056045560000e+006 5.93071198520000e+006 -3.11449840000000e+003 -4.17965230000000e+003 -2.37816210000000e+003
1.70800000000000e+003 3.47538211020000e+006 -3.35431934370000e+006 5.92833118140000e+006 -3.11822020000000e+003 -4.17686680000000e+003 -2.38344590000000e+003
1.70900000000000e+003 3.47176735250000e+006 -3.35807473940000e+006 5.92594509290000e+006 -3.12194180000000e+003 -4.17407580000000e+003 -2.38873130000000e+003
1.71000000000000e+003 3.46814897580000e+006 -3.36182663660000e+006 5.92355371820000e+006 -3.12566310000000e+003 -4.17127920000000e+003 -2.39401850000000e+003
1.71100000000000e+003 3.46452698150000e+006 -3.36557502940000e+006 5.92115705540000e+006 -3.12938410000000e+003 -4.16847700000000e+003 -2.39930740000000e+003
1.71200000000000e+003 3.46090137110000e+006 -3.36931991170000e+006 5.91875510280000e+006 -3.13310480000000e+003 -4.16566920000000e+003 -2.40459800000000e+003
1.71300000000000e+003 3.45727214620000e+006 -3.37306127740000e+006 5.91634785880000e+006 -3.13682520000000e+003 -4.16285580000000e+003 -2.40989030000000e+003
1.71400000000000e+003 3.45363930820000e+006 -3.37679912070000e+006 5.91393532170000e+006 -3.14054530000000e+003 -4.16003680000000e+003 -2.41518430000000e+003
1.71500000000000e+003 3.45000285850000e+006 -3.38053343530000e+006 5.91151748970000e+006 -3.14426520000000e+003 -4.15721210000000e+003 -2.42048000000000e+003
1.71600000000000e+003 3.44636279870000e+006 -3.38426421530000e+006 5.90909436110000e+006 -3.14798470000000e+003 -4.15438190000000e+003 -2.42577750000000e+003
1.71700000000000e+003 3.44271913020000e+006 -3.38799145450000e+006 5.90666593410000e+006 -3.15170400000000e+003 -4.15154600000000e+003 -2.43107670000000e+003
1.71800000000000e+003 3.43907185460000e+006 -3.39171514700000e+006 5.90423220720000e+006 -3.15542290000000e+003 -4.14870440000000e+003 -2.43637760000000e+003
1.71900000000000e+003 3.43542097330000e+006 -3.39543528660000e+006 5.90179317840000e+006 -3.15914160000000e+003 -4.14585720000000e+003 -2.44168020000000e+003
1.72000000000000e+003 3.43176648790000e+006 -3.39915186720000e+006 5.89934884620000e+006 -3.16286000000000e+003 -4.14300430000000e+003 -2.44698460000000e+003
1.72100000000000e+003 3.42810839980000e+006 -3.40286488280000e+006 5.89689920870000e+006 -3.16657800000000e+003 -4.14014570000000e+003 -2.45229070000000e+003
1.72200000000000e+003 3.42444671050000e+006 -3.40657432730000e+006 5.89444426420000e+006 -3.17029580000000e+003 -4.13728150000000e+003 -2.45759850000000e+003
1.72300000000000e+003 3.42078142150000e+006 -3.41028019450000e+006 5.89198401110000e+006 -3.17401330000000e+003 -4.13441150000000e+003 -2.46290810000000e+003
1.72400000000000e+003 3.41711253440000e+006 -3.41398247830000e+006 5.88951844740000e+006 -3.17773050000000e+003 -4.13153590000000e+003 -2.46821940000000e+003
1.72500000000000e+003 3.41344005060000e+006 -3.41768117260000e+006 5.88704757160000e+006 -3.18144750000000e+003 -4.12865460000000e+003 -2.47353250000000e+003
1.72600000000000e+003 3.40976397170000e+006 -3.42137627120000e+006 5.88457138180000e+006 -3.18516410000000e+003 -4.12576750000000e+003 -2.47884730000000e+003
END Ephemeris
